CTC1_L_00559016-03
1 38764U 22671LJ  26037.47809028  .00000000  00000+0  00000-0 0  9991
2 38764  98.0000 180.0000 0000000   0.0000   0.0000 14.73473835    12
CTC1_L_00559016-04
1 38765U 26458BK  26037.47809028  .00000000  00000+0  00000-0 0  9999
2 38765  98.0000 180.0000 0000000   0.0000  90.0000 14.73473835    12
CTC1_L_00559017-01
1 38766U 26017DJ  26037.47809028  .00000000  00000+0  00000-0 0  9991
2 38766  98.0000 192.0000 0000000   0.0000 192.0000 14.73473835    19
CTC1_L_00559017-02
1 38767U 26853Y   26037.47809028  .00000000  00000+0  00000-0 0  9990
2 38767  98.0000 192.0000 0000000   0.0000 282.0000 14.73473835    10
CTC1_L_00559017-03
1 38768U 25709EB  26037.47809028  .00000000  00000+0  00000-0 0  9990
2 38768  98.0000 192.0000 0000000   0.0000  12.0000 14.73473835    12
CTC1_L_00559017-04
1 38769U 22458BR  26037.47809028  .00000000  00000+0  00000-0 0  9999
2 38769  98.0000 192.0000 0000000   0.0000 102.0000 14.73473835    13
CTC1_L_00559018-01
1 38770U 24917ZG  26037.47809028  .00000000  00000+0  00000-0 0  9993
2 38770  98.0000 204.0000 0000000   0.0000 204.0000 14.73473835    12
CTC1_L_00559018-02
1 38771U 22257HY  26037.47809028  .00000000  00000+0  00000-0 0  9999
2 38771  98.0000 204.0000 0000000   0.0000 294.0000 14.73473835    12
CTC1_L_00559018-03
1 38772U 22938CX  26037.47809028  .00000000  00000+0  00000-0 0  9996
2 38772  98.0000 204.0000 0000000   0.0000  24.0000 14.73473835    14
CTC1_L_00559018-04
1 38773U 22232XK  26037.47809028  .00000000  00000+0  00000-0 0  9994
2 38773  98.0000 204.0000 0000000   0.0000 114.0000 14.73473835    15
CTC1_L_00559019-01
1 38774U 25673QU  26037.47809028  .00000000  00000+0  00000-0 0  9997
2 38774  98.0000 216.0000 0000000   0.0000 216.0000 14.73473835    12
CTC1_L_00559019-02
1 38775U 26996YL  26037.47809028  .00000000  00000+0  00000-0 0  9997
2 38775  98.0000 216.0000 0000000   0.0000 306.0000 14.73473835    13
CTC1_L_00559019-03
1 38776U 22108FF  26037.47809028  .00000000  00000+0  00000-0 0  9999
2 38776  98.0000 216.0000 0000000   0.0000  36.0000 14.73473835    14
CTC1_L_00559019-04
1 38777U 25962SB  26037.47809028  .00000000  00000+0  00000-0 0  9991
2 38777  98.0000 216.0000 0000000   0.0000 126.0000 14.73473835    15
CTC1_L_00559020-01
1 38778U 24044FP  26037.47809028  .00000000  00000+0  00000-0 0  9992
2 38778  98.0000 228.0000 0000000   0.0000 228.0000 14.73473835    12
CTC1_L_00559020-02
1 38779U 24752DQ  26037.47809028  .00000000  00000+0  00000-0 0  9999
2 38779  98.0000 228.0000 0000000   0.0000 318.0000 14.73473835    13
CTC1_L_00559020-03
1 38780U 25056UG  26037.47809028  .00000000  00000+0  00000-0 0  9999
2 38780  98.0000 228.0000 0000000   0.0000  48.0000 14.73473835    15
CTC1_L_00559020-04
1 38781U 22001DJ  26037.47809028  .00000000  00000+0  00000-0 0  9997
2 38781  98.0000 228.0000 0000000   0.0000 138.0000 14.73473835    16
CTC1_L_00559021-01
1 38782U 22847HN  26037.47809028  .00000000  00000+0  00000-0 0  9996
2 38782  98.0000 240.0000 0000000   0.0000 240.0000 14.73473835    15
CTC1_L_00559021-02
1 38783U 25946W   26037.47809028  .00000000  00000+0  00000-0 0  9990
2 38783  98.0000 240.0000 0000000   0.0000 330.0000 14.73473835    16
CTC1_L_00559021-03
1 38784U 23670SI  26037.47809028  .00000000  00000+0  00000-0 0  9993
2 38784  98.0000 240.0000 0000000   0.0000  60.0000 14.73473835    17
CTC1_L_00559021-04
1 38785U 25300KL  26037.47809028  .00000000  00000+0  00000-0 0  9996
2 38785  98.0000 240.0000 0000000   0.0000 150.0000 14.73473835    18
CTC1_L_00559022-01
1 38786U 25585S   26037.47809028  .00000000  00000+0  00000-0 0  9992
2 38786  98.0000 252.0000 0000000   0.0000 252.0000 14.73473835    15
CTC1_L_00559022-02
1 38787U 22083CU  26037.47809028  .00000000  00000+0  00000-0 0  9993
2 38787  98.0000 252.0000 0000000   0.0000 342.0000 14.73473835    16
CTC1_L_00559022-03
1 38788U 22702AL  26037.47809028  .00000000  00000+0  00000-0 0  9992
2 38788  98.0000 252.0000 0000000   0.0000  72.0000 14.73473835    17
CTC1_L_00559022-04
1 38789U 25642DH  26037.47809028  .00000000  00000+0  00000-0 0  9999
2 38789  98.0000 252.0000 0000000   0.0000 162.0000 14.73473835    18
CTC1_L_00559023-01
1 38790U 22943MY  26037.47809028  .00000000  00000+0  00000-0 0  9992
2 38790  98.0000 264.0000 0000000   0.0000 264.0000 14.73473835    16
CTC1_L_00559023-02
1 38791U 22472KM  26037.47809028  .00000000  00000+0  00000-0 0  9990
2 38791  98.0000 264.0000 0000000   0.0000 354.0000 14.73473835    17
CTC1_L_00559023-03
1 38792U 26420SI  26037.47809028  .00000000  00000+0  00000-0 0  9998
2 38792  98.0000 264.0000 0000000   0.0000  84.0000 14.73473835    18
CTC1_L_00559023-04
1 38793U 26041UA  26037.47809028  .00000000  00000+0  00000-0 0  9998
2 38793  98.0000 264.0000 0000000   0.0000 174.0000 14.73473835    19
CTC1_L_00559024-01
1 38794U 22927ST  26037.47809028  .00000000  00000+0  00000-0 0  9998
2 38794  98.0000 276.0000 0000000   0.0000 276.0000 14.73473835    16
CTC1_L_00559024-02
1 38795U 22266O   26037.47809028  .00000000  00000+0  00000-0 0  9995
2 38795  98.0000 276.0000 0000000   0.0000   6.0000 14.73473835    18
CTC1_L_00559024-03
1 38796U 24249UD  26037.47809028  .00000000  00000+0  00000-0 0  9999
2 38796  98.0000 276.0000 0000000   0.0000  96.0000 14.73473835    18
CTC1_L_00559024-04
1 38797U 26614WO  26037.47809028  .00000000  00000+0  00000-0 0  9998
2 38797  98.0000 276.0000 0000000   0.0000 186.0000 14.73473835    19
CTC1_L_00559025-01
1 38798U 24339QJ  26037.47809028  .00000000  00000+0  00000-0 0  9991
2 38798  98.0000 288.0000 0000000   0.0000 288.0000 14.73473835    16
CTC1_L_00559025-02
1 38799U 22890BV  26037.47809028  .00000000  00000+0  00000-0 0  9992
2 38799  98.0000 288.0000 0000000   0.0000  18.0000 14.73473835    18
CTC1_L_00559025-03
1 38800U 26165TZ  26037.47809028  .00000000  00000+0  00000-0 0  9994
2 38800  98.0000 288.0000 0000000   0.0000 108.0000 14.73473835    11
CTC1_L_00559025-04
1 38801U 26538VV  26037.47809028  .00000000  00000+0  00000-0 0  9999
2 38801  98.0000 288.0000 0000000   0.0000 198.0000 14.73473835    11
CTC1_L_00559026-01
1 38802U 23300LZ  26037.47809028  .00000000  00000+0  00000-0 0  9994
2 38802  98.0000 300.0000 0000000   0.0000 300.0000 14.73473835    12
CTC1_L_00559026-02
1 38803U 24768NB  26037.47809028  .00000000  00000+0  00000-0 0  9994
2 38803  98.0000 300.0000 0000000   0.0000  30.0000 14.73473835    13
CTC1_L_00559026-03
1 38804U 24785WY  26037.47809028  .00000000  00000+0  00000-0 0  9994
2 38804  98.0000 300.0000 0000000   0.0000 120.0000 14.73473835    14
CTC1_L_00559026-04
1 38805U 26449DY  26037.47809028  .00000000  00000+0  00000-0 0  9994
2 38805  98.0000 300.0000 0000000   0.0000 210.0000 14.73473835    15
CTC1_L_00559027-01
1 38806U 26443IG  26037.47809028  .00000000  00000+0  00000-0 0  9999
2 38806  98.0000 312.0000 0000000   0.0000 312.0000 14.73473835    12
CTC1_L_00559027-02
1 38807U 25812SZ  26037.47809028  .00000000  00000+0  00000-0 0  9999
2 38807  98.0000 312.0000 0000000   0.0000  42.0000 14.73473835    13
CTC1_L_00559027-03
1 38808U 25875B   26037.47809028  .00000000  00000+0  00000-0 0  9999
2 38808  98.0000 312.0000 0000000   0.0000 132.0000 14.73473835    14
CTC1_L_00559027-04
1 38809U 23509MP  26037.47809028  .00000000  00000+0  00000-0 0  9992
2 38809  98.0000 312.0000 0000000   0.0000 222.0000 14.73473835    15
CTC1_L_00559028-01
1 38810U 25835HC  26037.47809028  .00000000  00000+0  00000-0 0  9998
2 38810  98.0000 324.0000 0000000   0.0000 324.0000 14.73473835    13
CTC1_L_00559028-02
1 38811U 23384AK  26037.47809028  .00000000  00000+0  00000-0 0  9996
2 38811  98.0000 324.0000 0000000   0.0000  54.0000 14.73473835    14
CTC1_L_00559028-03
1 38812U 22571PE  26037.47809028  .00000000  00000+0  00000-0 0  9994
2 38812  98.0000 324.0000 0000000   0.0000 144.0000 14.73473835    15
CTC1_L_00559028-04
1 38813U 22648IA  26037.47809028  .00000000  00000+0  00000-0 0  9990
2 38813  98.0000 324.0000 0000000   0.0000 234.0000 14.73473835    16
CTC1_L_00559029-01
1 38814U 22885RA  26037.47809028  .00000000  00000+0  00000-0 0  9994
2 38814  98.0000 336.0000 0000000   0.0000 336.0000 14.73473835    13
CTC1_L_00559029-02
1 38815U 23862QJ  26037.47809028  .00000000  00000+0  00000-0 0  9991
2 38815  98.0000 336.0000 0000000   0.0000  66.0000 14.73473835    14
CTC1_L_00559029-03
1 38816U 26744V   26037.47809028  .00000000  00000+0  00000-0 0  9994
2 38816  98.0000 336.0000 0000000   0.0000 156.0000 14.73473835    15
CTC1_L_00559029-04
1 38817U 24281ZT  26037.47809028  .00000000  00000+0  00000-0 0  9999
2 38817  98.0000 336.0000 0000000   0.0000 246.0000 14.73473835    16
CTC1_L_00559030-01
1 38818U 25605WR  26037.47809028  .00000000  00000+0  00000-0 0  9991
2 38818  98.0000 348.0000 0000000   0.0000 348.0000 14.73473835    13
CTC1_L_00559030-02
1 38819U 23193Q   26037.47809028  .00000000  00000+0  00000-0 0  9992
2 38819  98.0000 348.0000 0000000   0.0000  78.0000 14.73473835    14
CTC1_L_00559030-03
1 38820U 22151LP  26037.47809028  .00000000  00000+0  00000-0 0  9997
2 38820  98.0000 348.0000 0000000   0.0000 168.0000 14.73473835    16
CTC1_L_00559030-04
1 38821U 25429KL  26037.47809028  .00000000  00000+0  00000-0 0  9999
2 38821  98.0000 348.0000 0000000   0.0000 258.0000 14.73473835    17
